SHIYAN-1 (SY-1)         
1 28220U 04012A   26068.73650539  .00016393  00000+0  54854-3 0  9991
2 28220  97.8764 140.5238 0005873  23.6952 336.4557 15.31043463195862
STARLINK-34237          
1 64194U 25113AA  26068.47486089  .00032189  00000+0  10943-2 0  9995
2 64194  53.1588  92.0210 0001188  74.7950 285.3182 15.30196237 44992
